[{"OBJECT_NAME":"KKS-1 (KISEKI)","OBJECT_ID":"2009-002H","EPOCH":"2026-03-09T22:29:35.909952","MEAN_MOTION":14.82831361,"ECCENTRICITY":0.00064814,"INCLINATION":98.118,"RA_OF_ASC_NODE":349.8365,"ARG_OF_PERICENTER":249.6334,"MEAN_ANOMALY":110.4183,"EPHEMERIS_TYPE":0,"CLASSIFICATION_TYPE":"U","NORAD_CAT_ID":33499,"ELEMENT_SET_NO":999,"REV_AT_EPOCH":92148,"BSTAR":0.00028879278,"MEAN_MOTION_DOT":2.283e-5,"MEAN_MOTION_DDOT":0},{"OBJECT_NAME":"GEESAT-3 10","OBJECT_ID":"2024-159K","EPOCH":"2026-03-09T21:50:43.608480","MEAN_MOTION":14.83818369,"ECCENTRICITY":0.00038048,"INCLINATION":49.9979,"RA_OF_ASC_NODE":183.5707,"ARG_OF_PERICENTER":94.3081,"MEAN_ANOMALY":265.8292,"EPHEMERIS_TYPE":0,"CLASSIFICATION_TYPE":"U","NORAD_CAT_ID":61020,"ELEMENT_SET_NO":999,"REV_AT_EPOCH":8176,"BSTAR":0.00041621314,"MEAN_MOTION_DOT":3.261e-5,"MEAN_MOTION_DDOT":0}]
